[{"OBJECT_NAME":"SNUGLITE","OBJECT_ID":"2018-099AC","EPOCH":"2026-03-09T16:09:06.907968","MEAN_MOTION":15.24835996,"ECCENTRICITY":0.00013388,"INCLINATION":97.4003,"RA_OF_ASC_NODE":124.0343,"ARG_OF_PERICENTER":280.5957,"MEAN_ANOMALY":79.5129,"EPHEMERIS_TYPE":0,"CLASSIFICATION_TYPE":"U","NORAD_CAT_ID":43784,"ELEMENT_SET_NO":999,"REV_AT_EPOCH":39814,"BSTAR":0.00055962727,"MEAN_MOTION_DOT":0.00013838,"MEAN_MOTION_DDOT":0},{"OBJECT_NAME":"YAOGAN-43 02C","OBJECT_ID":"2024-156C","EPOCH":"2026-03-09T12:58:27.079680","MEAN_MOTION":15.22982353,"ECCENTRICITY":0.00039016,"INCLINATION":34.9976,"RA_OF_ASC_NODE":104.8158,"ARG_OF_PERICENTER":208.5676,"MEAN_ANOMALY":151.4825,"EPHEMERIS_TYPE":0,"CLASSIFICATION_TYPE":"U","NORAD_CAT_ID":60947,"ELEMENT_SET_NO":999,"REV_AT_EPOCH":8424,"BSTAR":0.000414332,"MEAN_MOTION_DOT":9.954e-5,"MEAN_MOTION_DDOT":0}]
