SNUGLITE                
1 43784U 18099AC  26068.67299661  .00013838  00000+0  55963-3 0  9994
2 43784  97.4003 124.0343 0001339 280.5957  79.5129 15.24835996398140
YAOGAN-43 02C           
1 60947U 24156C   26068.54059120  .00009954  00000+0  41433-3 0  9996
2 60947  34.9976 104.8158 0003901 208.5676 151.4825 15.22982353 84244
